$$SOE
2459580.500000000, A.D. 2022-Jan-01 00:00:00.0000, -6.799030556602196E+08, 1.456200690922421E+08, -3.171675119260501E+07,
2459587.500000000, A.D. 2022-Jan-08 00:00:00.0000, -6.797212030861200E+08, 1.380463930375594E+08, -3.076237941796372E+07,
2459594.500000000, A.D. 2022-Jan-15 00:00:00.0000, -6.794408086583139E+08, 1.304527017207221E+08, -2.980354374018902E+07,
2459601.500000000, A.D. 2022-Jan-22 00:00:00.0000, -6.790611440349251E+08, 1.228399485417789E+08, -2.884035008537492E+07,
2459608.500000000, A.D. 2022-Jan-29 00:00:00.0000, -6.785814785508926E+08, 1.152091062076010E+08, -2.787290635173958E+07,
2459615.500000000, A.D. 2022-Feb-05 00:00:00.0000, -6.780010815604533E+08, 1.075611664942091E+08, -2.690132231925782E+07,
2459622.500000000, A.D. 2022-Feb-12 00:00:00.0000, -6.773192226176847E+08, 9.989713895115234E+07, -2.592570984583296E+07,
2459629.500000000, A.D. 2022-Feb-19 00:00:00.0000, -6.765351708197588E+08, 9.221805091710514E+07, -2.494618303493500E+07,
2459636.500000000, A.D. 2022-Feb-26 00:00:00.0000, -6.756481946245055E+08, 8.452494812357780E+07, -2.396285831368755E+07,
2459643.500000000, A.D. 2022-Mar-05 00:00:00.0000, -6.746575619835428E+08, 7.681889526983225E+07, -2.297585448670989E+07,
2459650.500000000, A.D. 2022-Mar-12 00:00:00.0000, -6.735625405697386E+08, 6.910097650335103E+07, -2.198529279174898E+07,
2459657.500000000, A.D. 2022-Mar-19 00:00:00.0000, -6.723623980286412E+08, 6.137229583400621E+07, -2.099129696166972E+07,
2459664.500000000, A.D. 2022-Mar-26 00:00:00.0000, -6.710564022322998E+08, 5.363397747617874E+07, -1.999399329568506E+07,
2459671.500000000, A.D. 2022-Apr-02 00:00:00.0000, -6.696438214685826E+08, 4.588716606329096E+07, -1.899351075092738E+07,
2459678.500000000, A.D. 2022-Apr-09 00:00:00.0000, -6.681239242948089E+08, 3.813302673995177E+07, -1.798998107918387E+07,
2459685.500000000, A.D. 2022-Apr-16 00:00:00.0000, -6.664959786993417E+08, 3.037274578613247E+07, -1.698353898830869E+07,
2459692.500000000, A.D. 2022-Apr-23 00:00:00.0000, -6.647592518407812E+08, 2.260753285782176E+07, -1.597432212347198E+07,
2459699.500000000, A.D. 2022-Apr-30 00:00:00.0000, -6.629130122360348E+08, 1.483862259896649E+07, -1.496247088033871E+07,
2459706.500000000, A.D. 2022-May-07 00:00:00.0000, -6.609565313358370E+08, 7.067273651474805E+06, -1.394812849249249E+07,
2459713.500000000, A.D. 2022-May-14 00:00:00.0000, -6.588890830990076E+08, -7.052318981059045E+05, -1.293144127225716E+07,
2459720.500000000, A.D. 2022-May-21 00:00:00.0000, -6.567099435970389E+08, -8.477587876557389E+06, -1.191255875658611E+07,
2459727.500000000, A.D. 2022-May-28 00:00:00.0000, -6.544183911288245E+08, -1.624846314557706E+07, -1.089163379247217E+07,
2459734.500000000, A.D. 2022-Jun-04 00:00:00.0000, -6.520137065696503E+08, -2.401650079982077E+07, -9.868822612869620E+06,
2459741.500000000, A.D. 2022-Jun-11 00:00:00.0000, -6.494951738109146E+08, -3.178031743911226E+07, -8.844284916186864E+06,
2459748.500000000, A.D. 2022-Jun-18 00:00:00.0000, -6.468620802529585E+08, -3.953850250142852E+07, -7.818183951747796E+06,
2459755.500000000, A.D. 2022-Jun-25 00:00:00.0000, -6.441137173226602E+08, -4.728961768976557E+07, -6.790686616541561E+06,
2459762.500000000, A.D. 2022-Jul-02 00:00:00.0000, -6.412493808828832E+08, -5.503219655859582E+07, -5.761963580811974E+06,
2459769.500000000, A.D. 2022-Jul-09 00:00:00.0000, -6.382683711446660E+08, -6.276474408297631E+07, -4.732189463675220E+06,
2459776.500000000, A.D. 2022-Jul-16 00:00:00.0000, -6.351699921384361E+08, -7.048573512767752E+07, -3.701542965038788E+06,
2459783.500000000, A.D. 2022-Jul-23 00:00:00.0000, -6.319535529438992E+08, -7.819361173909730E+07, -2.670206745632589E+06,
2459790.500000000, A.D. 2022-Jul-30 00:00:00.0000, -6.286183705963327E+08, -8.588678261450556E+07, -1.638367336755008E+06,
2459797.500000000, A.D. 2022-Aug-06 00:00:00.0000, -6.251637710723977E+08, -9.356362410076281E+07, -6.062153566030487E+05,
2459804.500000000, A.D. 2022-Aug-13 00:00:00.0000, -6.215890891798433E+08, -1.012224799683448E+08, 4.260542677580193E+05,
2459811.500000000, A.D. 2022-Aug-20 00:00:00.0000, -6.178936689216517E+08, -1.088616604648682E+08, 1.458242175899558E+06,
2459818.500000000, A.D. 2022-Aug-27 00:00:00.0000, -6.140768642682226E+08, -1.164794413757026E+08, 2.490144481634289E+06,
2459825.500000000, A.D. 2022-Sep-03 00:00:00.0000, -6.101380400916758E+08, -1.240740632031481E+08, 3.521552681171685E+06,
2459832.500000000, A.D. 2022-Sep-10 00:00:00.0000, -6.060765731741847E+08, -1.316437304411631E+08, 4.552253555719115E+06,
2459839.500000000, A.D. 2022-Sep-17 00:00:00.0000, -6.018918532629042E+08, -1.391866109483360E+08, 5.582029065836817E+06,
2459846.500000000, A.D. 2022-Sep-24 00:00:00.0000, -5.975832841130650E+08, -1.467008354710036E+08, 6.610656227934644E+06,
2459853.500000000, A.D. 2022-Oct-01 00:00:00.0000, -5.931502842812481E+08, -1.541844973398606E+08, 7.637906949099742E+06,
2459860.500000000, A.D. 2022-Oct-08 00:00:00.0000, -5.885922872633718E+08, -1.616356518190238E+08, 8.663547825537547E+06,
2459867.500000000, A.D. 2022-Oct-15 00:00:00.0000, -5.839087419107420E+08, -1.690523139095464E+08, 9.687340088026606E+06,
2459874.500000000, A.D. 2022-Oct-22 00:00:00.0000, -5.790991153072802E+08, -1.764324562929456E+08, 1.070903975676393E+07,
2459881.500000000, A.D. 2022-Oct-29 00:00:00.0000, -5.741628956122153E+08, -1.837740100102859E+08, 1.172839756441594E+07,
2459888.500000000, A.D. 2022-Nov-05 00:00:00.0000, -5.690995927710369E+08, -1.910748651375780E+08, 1.274515867876783E+07,
2459895.500000000, A.D. 2022-Nov-12 00:00:00.0000, -5.639087390612434E+08, -1.983328701924300E+08, 1.375906250874311E+07,
2459902.500000000, A.D. 2022-Nov-19 00:00:00.0000, -5.585898901943496E+08, -2.055458312287989E+08, 1.476984258180505E+07,
2459909.500000000, A.D. 2022-Nov-26 00:00:00.0000, -5.531426267146336E+08, -2.127115110200753E+08, 1.577722643629181E+07,
2459916.500000000, A.D. 2022-Dec-03 00:00:00.0000, -5.475665555314640E+08, -2.198276283447891E+08, 1.678093551270352E+07,
2459923.500000000, A.D. 2022-Dec-10 00:00:00.0000, -5.418613115423118E+08, -2.268918573589608E+08, 1.778068504158787E+07,
2459930.500000000, A.D. 2022-Dec-17 00:00:00.0000, -5.360265593240638E+08, -2.339018270829743E+08, 1.877618392408234E+07,
2459937.500000000, A.D. 2022-Dec-24 00:00:00.0000, -5.300619947854109E+08, -2.408551210719831E+08, 1.976713459012306E+07,
2459944.500000000, A.D. 2022-Dec-31 00:00:00.0000, -5.239673464247145E+08, -2.477492771658031E+08, 2.075323281077455E+07,
2459951.500000000, A.D. 2023-Jan-07 00:00:00.0000, -5.177423760725145E+08, -2.545817863596162E+08, 2.173416753257944E+07,
2459958.500000000, A.D. 2023-Jan-14 00:00:00.0000, -5.113868810873200E+08, -2.613500903027969E+08, 2.270962095547579E+07,
2459965.500000000, A.D. 2023-Jan-21 00:00:00.0000, -5.049006986513231E+08, -2.680515806033451E+08, 2.367926865469281E+07,
2459972.500000000, A.D. 2023-Jan-28 00:00:00.0000, -4.982837085005671E+08, -2.746836001385515E+08, 2.464277939486273E+07,
2459979.500000000, A.D. 2023-Feb-04 00:00:00.0000, -4.915358343001868E+08, -2.812434433488951E+08, 2.559981490365814E+07,
2459986.500000000, A.D. 2023-Feb-11 00:00:00.0000, -4.846570454611381E+08, -2.877283557137069E+08, 2.655002975455604E+07,
2459993.500000000, A.D. 2023-Feb-18 00:00:00.0000, -4.776473594626538E+08, -2.941355332374588E+08, 2.749307129801886E+07,
2460000.500000000, A.D. 2023-Feb-25 00:00:00.0000, -4.705068444187853E+08, -3.004621221147156E+08, 2.842857960460979E+07,
2460007.500000000, A.D. 2023-Mar-04 00:00:00.0000, -4.632356217879914E+08, -3.067052185614553E+08, 2.935618741315883E+07,
2460014.500000000, A.D. 2023-Mar-11 00:00:00.0000, -4.558338691980582E+08, -3.128618688189704E+08, 3.027552008245432E+07,
2460021.500000000, A.D. 2023-Mar-18 00:00:00.0000, -4.483018233398131E+08, -3.189290693868371E+08, 3.118619553923404E+07,
2460028.500000000, A.D. 2023-Mar-25 00:00:00.0000, -4.406397827264878E+08, -3.249037675395432E+08, 3.208782420117210E+07,
2460035.500000000, A.D. 2023-Apr-01 00:00:00.0000, -4.328481098939942E+08, -3.307828617410949E+08, 3.298000886932975E+07,
2460042.500000000, A.D. 2023-Apr-08 00:00:00.0000, -4.249272336567067E+08, -3.365632007405917E+08, 3.386234474789135E+07,
2460049.500000000, A.D. 2023-Apr-15 00:00:00.0000, -4.168776537542624E+08, -3.422415824634640E+08, 3.473441971638420E+07,
2460056.500000000, A.D. 2023-Apr-22 00:00:00.0000, -4.086999460786697E+08, -3.478147557598928E+08, 3.559581444028652E+07,
2460063.500000000, A.D. 2023-Apr-29 00:00:00.0000, -4.003947657452663E+08, -3.532794227673916E+08, 3.644610225462510E+07,
2460070.500000000, A.D. 2023-May-06 00:00:00.0000, -3.919628497652514E+08, -3.586322401158240E+08, 3.728484912890297E+07,
2460077.500000000, A.D. 2023-May-13 00:00:00.0000, -3.834050202927151E+08, -3.638698198781172E+08, 3.811161373112866E+07,
2460084.500000000, A.D. 2023-May-20 00:00:00.0000, -3.747221882073799E+08, -3.689887307683794E+08, 3.892594753048737E+07,
2460091.500000000, A.D. 2023-May-27 00:00:00.0000, -3.659153568345650E+08, -3.739854996282591E+08, 3.972739491971324E+07,
2460098.500000000, A.D. 2023-Jun-03 00:00:00.0000, -3.569856257394265E+08, -3.788566131872492E+08, 4.051549335533236E+07,
2460105.500000000, A.D. 2023-Jun-10 00:00:00.0000, -3.479341945656042E+08, -3.835985201222256E+08, 4.128977351387590E+07,
2460112.500000000, A.D. 2023-Jun-17 00:00:00.0000, -3.387623668219594E+08, -3.882076334875189E+08, 4.204975945240019E+07,
2460119.500000000, A.D. 2023-Jun-24 00:00:00.0000, -3.294715532886035E+08, -3.926803334709287E+08, 4.279496874988553E+07,
2460126.500000000, A.D. 2023-Jul-01 00:00:00.0000, -3.200632747786375E+08, -3.970129696586972E+08, 4.352491267531447E+07,
2460133.500000000, A.D. 2023-Jul-08 00:00:00.0000, -3.105391659175400E+08, -4.012018619988036E+08, 4.423909660448505E+07,
2460140.500000000, A.D. 2023-Jul-15 00:00:00.0000, -3.009009812036888E+08, -4.052433033046517E+08, 4.493702057282311E+07,
$$EOE